{
  "type": "FeatureCollection",
  "features": [
    {
      "type": "Feature",
      "properties": {
        "norad_id": 66471,
        "name": "STARLINK-35569",
        "group": "last-30-days",
        "lat": 5.877438655356498,
        "lon": -103.3879661173464,
        "alt_km": 414.2322711971492,
        "timestamp": "2025-12-10T16:57:10.415153+00:00",
        "meta_object_name": "STARLINK-35569",
        "meta_object_id": "2025-262R",
        "meta_epoch": "2025-12-10T08:29:11.778720",
        "meta_mean_motion": 15.50319363,
        "meta_eccentricity": 0.0001981,
        "meta_inclination": 43.0004,
        "meta_ra_of_asc_node": 85.0176,
        "meta_arg_of_pericenter": 247.1656,
        "meta_mean_anomaly": 112.8995,
        "meta_ephemeris_type": 0,
        "meta_classification_type": "U",
        "meta_norad_cat_id": 66471,
        "meta_element_set_no": 999,
        "meta_rev_at_epoch": 519,
        "meta_bstar": 0.0022094,
        "meta_mean_motion_dot": 0.00130242,
        "meta_mean_motion_ddot": 0,
        "tle_line1": "1 66471U 25262R   25344.35360855  .00130242  00000+0  22094-2 0  9994",
        "tle_line2": "2 66471  43.0004  85.0176 0001981 247.1656 112.8995 15.50319363  5190"
      },
      "geometry": {
        "type": "Point",
        "coordinates": [
          -103.3879661173464,
          5.877438655356498
        ]
      }
    },
    {
      "type": "Feature",
      "properties": {
        "norad_id": 66472,
        "name": "STARLINK-35567",
        "group": "last-30-days",
        "lat": 2.9724957947475947,
        "lon": -100.2507702845783,
        "alt_km": 414.3494972355729,
        "timestamp": "2025-12-10T16:57:10.415163+00:00",
        "meta_object_name": "STARLINK-35567",
        "meta_object_id": "2025-262S",
        "meta_epoch": "2025-12-10T11:33:41.650848",
        "meta_mean_motion": 15.50613801,
        "meta_eccentricity": 0.000162,
        "meta_inclination": 43.0003,
        "meta_ra_of_asc_node": 84.258,
        "meta_arg_of_pericenter": 274.2035,
        "meta_mean_anomaly": 85.864,
        "meta_ephemeris_type": 0,
        "meta_classification_type": "U",
        "meta_norad_cat_id": 66472,
        "meta_element_set_no": 999,
        "meta_rev_at_epoch": 521,
        "meta_bstar": 0.0019799,
        "meta_mean_motion_dot": 0.0011772,
        "meta_mean_motion_ddot": 0,
        "tle_line1": "1 66472U 25262S   25344.48173207  .00117720  00000+0  19799-2 0  9996",
        "tle_line2": "2 66472  43.0003  84.2580 0001620 274.2035  85.8640 15.50613801  5215"
      },
      "geometry": {
        "type": "Point",
        "coordinates": [
          -100.2507702845783,
          2.9724957947475947
        ]
      }
    },
    {
      "type": "Feature",
      "properties": {
        "norad_id": 66473,
        "name": "STARLINK-35568",
        "group": "last-30-days",
        "lat": 1.656732470067402,
        "lon": -98.84059136291395,
        "alt_km": 414.51875711222783,
        "timestamp": "2025-12-10T16:57:10.415173+00:00",
        "meta_object_name": "STARLINK-35568",
        "meta_object_id": "2025-262T",
        "meta_epoch": "2025-12-10T10:00:26.532864",
        "meta_mean_motion": 15.50612944,
        "meta_eccentricity": 0.0001568,
        "meta_inclination": 43.001,
        "meta_ra_of_asc_node": 84.6313,
        "meta_arg_of_pericenter": 274.6752,
        "meta_mean_anomaly": 85.3929,
        "meta_ephemeris_type": 0,
        "meta_classification_type": "U",
        "meta_norad_cat_id": 66473,
        "meta_element_set_no": 999,
        "meta_rev_at_epoch": 520,
        "meta_bstar": 0.0013936,
        "meta_mean_motion_dot": 0.0008238,
        "meta_mean_motion_ddot": 0,
        "tle_line1": "1 66473U 25262T   25344.41697376  .00082380  00000+0  13936-2 0  9998",
        "tle_line2": "2 66473  43.0010  84.6313 0001568 274.6752  85.3929 15.50612944  5204"
      },
      "geometry": {
        "type": "Point",
        "coordinates": [
          -98.84059136291395,
          1.656732470067402
        ]
      }
    },
    {
      "type": "Feature",
      "properties": {
        "norad_id": 66474,
        "name": "STARLINK-35620",
        "group": "last-30-days",
        "lat": 0.4720676284044312,
        "lon": -97.5730701947227,
        "alt_km": 414.9437449793013,
        "timestamp": "2025-12-10T16:57:10.415183+00:00",
        "meta_object_name": "STARLINK-35620",
        "meta_object_id": "2025-262U",
        "meta_epoch": "2025-12-10T09:59:58.572096",
        "meta_mean_motion": 15.5053595,
        "meta_eccentricity": 0.0001069,
        "meta_inclination": 43.0007,
        "meta_ra_of_asc_node": 84.6285,
        "meta_arg_of_pericenter": 283.2418,
        "meta_mean_anomaly": 76.8323,
        "meta_ephemeris_type": 0,
        "meta_classification_type": "U",
        "meta_norad_cat_id": 66474,
        "meta_element_set_no": 999,
        "meta_rev_at_epoch": 520,
        "meta_bstar": 0.0012624,
        "meta_mean_motion_dot": 0.00074307,
        "meta_mean_motion_ddot": 0,
        "tle_line1": "1 66474U 25262U   25344.41665014  .00074307  00000+0  12624-2 0  9996",
        "tle_line2": "2 66474  43.0007  84.6285 0001069 283.2418  76.8323 15.50535950  5204"
      },
      "geometry": {
        "type": "Point",
        "coordinates": [
          -97.5730701947227,
          0.4720676284044312
        ]
      }
    },
    {
      "type": "Feature",
      "properties": {
        "norad_id": 66475,
        "name": "STARLINK-35538",
        "group": "last-30-days",
        "lat": -0.9526749641943805,
        "lon": -96.04854885704849,
        "alt_km": 414.70453771915254,
        "timestamp": "2025-12-10T16:57:10.415193+00:00",
        "meta_object_name": "STARLINK-35538",
        "meta_object_id": "2025-262V",
        "meta_epoch": "2025-12-10T11:32:12.573312",
        "meta_mean_motion": 15.50617619,
        "meta_eccentricity": 0.0001769,
        "meta_inclination": 43.0012,
        "meta_ra_of_asc_node": 84.2494,
        "meta_arg_of_pericenter": 270.8556,
        "meta_mean_anomaly": 89.2101,
        "meta_ephemeris_type": 0,
        "meta_classification_type": "U",
        "meta_norad_cat_id": 66475,
        "meta_element_set_no": 999,
        "meta_rev_at_epoch": 521,
        "meta_bstar": 0.0017436,
        "meta_mean_motion_dot": 0.00103454,
        "meta_mean_motion_ddot": 0,
        "tle_line1": "1 66475U 25262V   25344.48070108  .00103454  00000+0  17436-2 0  9990",
        "tle_line2": "2 66475  43.0012  84.2494 0001769 270.8556  89.2101 15.50617619  5217"
      },
      "geometry": {
        "type": "Point",
        "coordinates": [
          -96.04854885704849,
          -0.9526749641943805
        ]
      }
    },
    {
      "type": "Feature",
      "properties": {
        "norad_id": 66476,
        "name": "STARLINK-35372",
        "group": "last-30-days",
        "lat": -2.237239050721119,
        "lon": -94.67345042466995,
        "alt_km": 414.85406971242173,
        "timestamp": "2025-12-10T16:57:10.415205+00:00",
        "meta_object_name": "STARLINK-35372",
        "meta_object_id": "2025-262W",
        "meta_epoch": "2025-12-10T11:31:43.089312",
        "meta_mean_motion": 15.50593251,
        "meta_eccentricity": 0.0001828,
        "meta_inclination": 43.001,
        "meta_ra_of_asc_node": 84.2462,
        "meta_arg_of_pericenter": 268.3843,
        "meta_mean_anomaly": 91.6808,
        "meta_ephemeris_type": 0,
        "meta_classification_type": "U",
        "meta_norad_cat_id": 66476,
        "meta_element_set_no": 999,
        "meta_rev_at_epoch": 510,
        "meta_bstar": 0.0016384,
        "meta_mean_motion_dot": 0.00097025,
        "meta_mean_motion_ddot": 0,
        "tle_line1": "1 66476U 25262W   25344.48035983  .00097025  00000+0  16384-2 0  9990",
        "tle_line2": "2 66476  43.0010  84.2462 0001828 268.3843  91.6808 15.50593251  5102"
      },
      "geometry": {
        "type": "Point",
        "coordinates": [
          -94.67345042466995,
          -2.237239050721119
        ]
      }
    },
    {
      "type": "Feature",
      "properties": {
        "norad_id": 66477,
        "name": "STARLINK-35354",
        "group": "last-30-days",
        "lat": -4.858923821791856,
        "lon": -91.8526497387862,
        "alt_km": 415.170358645486,
        "timestamp": "2025-12-10T16:57:10.415215+00:00",
        "meta_object_name": "STARLINK-35354",
        "meta_object_id": "2025-262X",
        "meta_epoch": "2025-12-10T11:30:43.786944",
        "meta_mean_motion": 15.50606074,
        "meta_eccentricity": 0.0001501,
        "meta_inclination": 43.0002,
        "meta_ra_of_asc_node": 84.2397,
        "meta_arg_of_pericenter": 273.5387,
        "meta_mean_anomaly": 86.5301,
        "meta_ephemeris_type": 0,
        "meta_classification_type": "U",
        "meta_norad_cat_id": 66477,
        "meta_element_set_no": 999,
        "meta_rev_at_epoch": 521,
        "meta_bstar": 0.0016916,
        "meta_mean_motion_dot": 0.00100274,
        "meta_mean_motion_ddot": 0,
        "tle_line1": "1 66477U 25262X   25344.47967346  .00100274  00000+0  16916-2 0  9999",
        "tle_line2": "2 66477  43.0002  84.2397 0001501 273.5387  86.5301 15.50606074  5211"
      },
      "geometry": {
        "type": "Point",
        "coordinates": [
          -91.8526497387862,
          -4.858923821791856
        ]
      }
    }
  ]
}